<?xml version="1.0" encoding="UTF-8"?>
<ndm xmlns:xsi="http://www.w3.org/2001/XMLSchema-instance" xsi:noNamespaceSchemaLocation="https://sanaregistry.org/r/ndmxml_unqualified/ndmxml-2.0.0-master-2.0.xsd">
<omm id="CCSDS_OMM_VERS" version="2.0">
<header><CREATION_DATE/><ORIGINATOR/></header><body><segment><metadata><OBJECT_NAME>KUIPER-00079</OBJECT_NAME><OBJECT_ID>2025-151L</OBJECT_ID><CENTER_NAME>EARTH</CENTER_NAME><REF_FRAME>TEME</REF_FRAME><TIME_SYSTEM>UTC</TIME_SYSTEM><MEAN_ELEMENT_THEORY>SGP4</MEAN_ELEMENT_THEORY></metadata><data><meanElements><EPOCH>2026-01-05T04:00:03.000096</EPOCH><MEAN_MOTION>14.80110683</MEAN_MOTION><ECCENTRICITY>.0007189</ECCENTRICITY><INCLINATION>51.8961</INCLINATION><RA_OF_ASC_NODE>221.4679</RA_OF_ASC_NODE><ARG_OF_PERICENTER>39.5970</ARG_OF_PERICENTER><MEAN_ANOMALY>65.8088</MEAN_ANOMALY></meanElements><tleParameters><EPHEMERIS_TYPE>0</EPHEMERIS_TYPE><CLASSIFICATION_TYPE>U</CLASSIFICATION_TYPE><NORAD_CAT_ID>64826</NORAD_CAT_ID><ELEMENT_SET_NO>999</ELEMENT_SET_NO><REV_AT_EPOCH>439</REV_AT_EPOCH><BSTAR>-.38936E-2</BSTAR><MEAN_MOTION_DOT>-.29914E-3</MEAN_MOTION_DOT><MEAN_MOTION_DDOT>0</MEAN_MOTION_DDOT></tleParameters></data></segment></body></omm>
<omm id="CCSDS_OMM_VERS" version="2.0">
<header><CREATION_DATE/><ORIGINATOR/></header><body><segment><metadata><OBJECT_NAME>KUIPER-00080</OBJECT_NAME><OBJECT_ID>2025-151M</OBJECT_ID><CENTER_NAME>EARTH</CENTER_NAME><REF_FRAME>TEME</REF_FRAME><TIME_SYSTEM>UTC</TIME_SYSTEM><MEAN_ELEMENT_THEORY>SGP4</MEAN_ELEMENT_THEORY></metadata><data><meanElements><EPOCH>2026-01-04T23:28:21.869760</EPOCH><MEAN_MOTION>14.79942079</MEAN_MOTION><ECCENTRICITY>.0006473</ECCENTRICITY><INCLINATION>51.8982</INCLINATION><RA_OF_ASC_NODE>222.3056</RA_OF_ASC_NODE><ARG_OF_PERICENTER>56.5229</ARG_OF_PERICENTER><MEAN_ANOMALY>303.6351</MEAN_ANOMALY></meanElements><tleParameters><EPHEMERIS_TYPE>0</EPHEMERIS_TYPE><CLASSIFICATION_TYPE>U</CLASSIFICATION_TYPE><NORAD_CAT_ID>64827</NORAD_CAT_ID><ELEMENT_SET_NO>999</ELEMENT_SET_NO><REV_AT_EPOCH>2587</REV_AT_EPOCH><BSTAR>.53505E-3</BSTAR><MEAN_MOTION_DOT>.3861E-4</MEAN_MOTION_DOT><MEAN_MOTION_DDOT>0</MEAN_MOTION_DDOT></tleParameters></data></segment></body></omm>
<omm id="CCSDS_OMM_VERS" version="2.0">
<header><CREATION_DATE/><ORIGINATOR/></header><body><segment><metadata><OBJECT_NAME>KUIPER-00082</OBJECT_NAME><OBJECT_ID>2025-151N</OBJECT_ID><CENTER_NAME>EARTH</CENTER_NAME><REF_FRAME>TEME</REF_FRAME><TIME_SYSTEM>UTC</TIME_SYSTEM><MEAN_ELEMENT_THEORY>SGP4</MEAN_ELEMENT_THEORY></metadata><data><meanElements><EPOCH>2026-01-04T18:07:14.610144</EPOCH><MEAN_MOTION>14.79922760</MEAN_MOTION><ECCENTRICITY>.00029747</ECCENTRICITY><INCLINATION>51.9008</INCLINATION><RA_OF_ASC_NODE>210.8105</RA_OF_ASC_NODE><ARG_OF_PERICENTER>97.8142</ARG_OF_PERICENTER><MEAN_ANOMALY>262.3158</MEAN_ANOMALY></meanElements><tleParameters><EPHEMERIS_TYPE>0</EPHEMERIS_TYPE><CLASSIFICATION_TYPE>U</CLASSIFICATION_TYPE><NORAD_CAT_ID>64828</NORAD_CAT_ID><ELEMENT_SET_NO>999</ELEMENT_SET_NO><REV_AT_EPOCH>2601</REV_AT_EPOCH><BSTAR>-.2959419E-2</BSTAR><MEAN_MOTION_DOT>-.22703E-3</MEAN_MOTION_DOT><MEAN_MOTION_DDOT>0</MEAN_MOTION_DDOT></tleParameters></data></segment></body></omm>
<omm id="CCSDS_OMM_VERS" version="2.0">
<header><CREATION_DATE/><ORIGINATOR/></header><body><segment><metadata><OBJECT_NAME>KUIPER-00083</OBJECT_NAME><OBJECT_ID>2025-151P</OBJECT_ID><CENTER_NAME>EARTH</CENTER_NAME><REF_FRAME>TEME</REF_FRAME><TIME_SYSTEM>UTC</TIME_SYSTEM><MEAN_ELEMENT_THEORY>SGP4</MEAN_ELEMENT_THEORY></metadata><data><meanElements><EPOCH>2026-01-05T04:00:03.000096</EPOCH><MEAN_MOTION>14.80151364</MEAN_MOTION><ECCENTRICITY>.0005685</ECCENTRICITY><INCLINATION>51.8977</INCLINATION><RA_OF_ASC_NODE>216.4855</RA_OF_ASC_NODE><ARG_OF_PERICENTER>57.5525</ARG_OF_PERICENTER><MEAN_ANOMALY>19.0516</MEAN_ANOMALY></meanElements><tleParameters><EPHEMERIS_TYPE>0</EPHEMERIS_TYPE><CLASSIFICATION_TYPE>U</CLASSIFICATION_TYPE><NORAD_CAT_ID>64829</NORAD_CAT_ID><ELEMENT_SET_NO>999</ELEMENT_SET_NO><REV_AT_EPOCH>500</REV_AT_EPOCH><BSTAR>-.43799E-2</BSTAR><MEAN_MOTION_DOT>-.3363E-3</MEAN_MOTION_DOT><MEAN_MOTION_DDOT>0</MEAN_MOTION_DDOT></tleParameters></data></segment></body></omm>
<omm id="CCSDS_OMM_VERS" version="2.0">
<header><CREATION_DATE/><ORIGINATOR/></header><body><segment><metadata><OBJECT_NAME>KUIPER-00084</OBJECT_NAME><OBJECT_ID>2025-151Q</OBJECT_ID><CENTER_NAME>EARTH</CENTER_NAME><REF_FRAME>TEME</REF_FRAME><TIME_SYSTEM>UTC</TIME_SYSTEM><MEAN_ELEMENT_THEORY>SGP4</MEAN_ELEMENT_THEORY></metadata><data><meanElements><EPOCH>2026-01-05T00:09:24.332832</EPOCH><MEAN_MOTION>14.79939870</MEAN_MOTION><ECCENTRICITY>.0008846</ECCENTRICITY><INCLINATION>51.8988</INCLINATION><RA_OF_ASC_NODE>227.1788</RA_OF_ASC_NODE><ARG_OF_PERICENTER>15.0019</ARG_OF_PERICENTER><MEAN_ANOMALY>345.1204</MEAN_ANOMALY></meanElements><tleParameters><EPHEMERIS_TYPE>0</EPHEMERIS_TYPE><CLASSIFICATION_TYPE>U</CLASSIFICATION_TYPE><NORAD_CAT_ID>64830</NORAD_CAT_ID><ELEMENT_SET_NO>999</ELEMENT_SET_NO><REV_AT_EPOCH>2580</REV_AT_EPOCH><BSTAR>.15284E-2</BSTAR><MEAN_MOTION_DOT>.11457E-3</MEAN_MOTION_DOT><MEAN_MOTION_DDOT>0</MEAN_MOTION_DDOT></tleParameters></data></segment></body></omm>
<omm id="CCSDS_OMM_VERS" version="2.0">
<header><CREATION_DATE/><ORIGINATOR/></header><body><segment><metadata><OBJECT_NAME>KUIPER-00085</OBJECT_NAME><OBJECT_ID>2025-151R</OBJECT_ID><CENTER_NAME>EARTH</CENTER_NAME><REF_FRAME>TEME</REF_FRAME><TIME_SYSTEM>UTC</TIME_SYSTEM><MEAN_ELEMENT_THEORY>SGP4</MEAN_ELEMENT_THEORY></metadata><data><meanElements><EPOCH>2026-01-04T23:47:52.035072</EPOCH><MEAN_MOTION>14.79979021</MEAN_MOTION><ECCENTRICITY>.0008027</ECCENTRICITY><INCLINATION>51.9011</INCLINATION><RA_OF_ASC_NODE>209.7824</RA_OF_ASC_NODE><ARG_OF_PERICENTER>55.7203</ARG_OF_PERICENTER><MEAN_ANOMALY>304.4519</MEAN_ANOMALY></meanElements><tleParameters><EPHEMERIS_TYPE>0</EPHEMERIS_TYPE><CLASSIFICATION_TYPE>U</CLASSIFICATION_TYPE><NORAD_CAT_ID>64831</NORAD_CAT_ID><ELEMENT_SET_NO>999</ELEMENT_SET_NO><REV_AT_EPOCH>2604</REV_AT_EPOCH><BSTAR>.49214E-3</BSTAR><MEAN_MOTION_DOT>.3536E-4</MEAN_MOTION_DOT><MEAN_MOTION_DDOT>0</MEAN_MOTION_DDOT></tleParameters></data></segment></body></omm>
<omm id="CCSDS_OMM_VERS" version="2.0">
<header><CREATION_DATE/><ORIGINATOR/></header><body><segment><metadata><OBJECT_NAME>KUIPER-00086</OBJECT_NAME><OBJECT_ID>2025-151S</OBJECT_ID><CENTER_NAME>EARTH</CENTER_NAME><REF_FRAME>TEME</REF_FRAME><TIME_SYSTEM>UTC</TIME_SYSTEM><MEAN_ELEMENT_THEORY>SGP4</MEAN_ELEMENT_THEORY></metadata><data><meanElements><EPOCH>2026-01-04T23:32:19.148352</EPOCH><MEAN_MOTION>14.79918755</MEAN_MOTION><ECCENTRICITY>.0011165</ECCENTRICITY><INCLINATION>51.8993</INCLINATION><RA_OF_ASC_NODE>219.8134</RA_OF_ASC_NODE><ARG_OF_PERICENTER>33.8159</ARG_OF_PERICENTER><MEAN_ANOMALY>326.3513</MEAN_ANOMALY></meanElements><tleParameters><EPHEMERIS_TYPE>0</EPHEMERIS_TYPE><CLASSIFICATION_TYPE>U</CLASSIFICATION_TYPE><NORAD_CAT_ID>64832</NORAD_CAT_ID><ELEMENT_SET_NO>999</ELEMENT_SET_NO><REV_AT_EPOCH>2590</REV_AT_EPOCH><BSTAR>.53826E-3</BSTAR><MEAN_MOTION_DOT>.3884E-4</MEAN_MOTION_DOT><MEAN_MOTION_DDOT>0</MEAN_MOTION_DDOT></tleParameters></data></segment></body></omm>
<omm id="CCSDS_OMM_VERS" version="2.0">
<header><CREATION_DATE/><ORIGINATOR/></header><body><segment><metadata><OBJECT_NAME>KUIPER-00087</OBJECT_NAME><OBJECT_ID>2025-151T</OBJECT_ID><CENTER_NAME>EARTH</CENTER_NAME><REF_FRAME>TEME</REF_FRAME><TIME_SYSTEM>UTC</TIME_SYSTEM><MEAN_ELEMENT_THEORY>SGP4</MEAN_ELEMENT_THEORY></metadata><data><meanElements><EPOCH>2026-01-04T17:30:38.417184</EPOCH><MEAN_MOTION>14.79935983</MEAN_MOTION><ECCENTRICITY>.00006463</ECCENTRICITY><INCLINATION>51.8982</INCLINATION><RA_OF_ASC_NODE>203.4148</RA_OF_ASC_NODE><ARG_OF_PERICENTER>89.5991</ARG_OF_PERICENTER><MEAN_ANOMALY>270.5045</MEAN_ANOMALY></meanElements><tleParameters><EPHEMERIS_TYPE>0</EPHEMERIS_TYPE><CLASSIFICATION_TYPE>U</CLASSIFICATION_TYPE><NORAD_CAT_ID>64833</NORAD_CAT_ID><ELEMENT_SET_NO>999</ELEMENT_SET_NO><REV_AT_EPOCH>2610</REV_AT_EPOCH><BSTAR>.15264705E-2</BSTAR><MEAN_MOTION_DOT>.11436E-3</MEAN_MOTION_DOT><MEAN_MOTION_DDOT>0</MEAN_MOTION_DDOT></tleParameters></data></segment></body></omm>

</ndm>
