KUIPER-00079            
1 64826U 25151L   26005.16670139 -.00029914  00000+0 -38936-2 0  9993
2 64826  51.8961 221.4679 0007189  39.5970  65.8088 14.80110683  4390
KUIPER-00080            
1 64827U 25151M   26004.97803090  .00003861  00000+0  53505-3 0  9997
2 64827  51.8982 222.3056 0006473  56.5229 303.6351 14.79942079 25876
KUIPER-00082            
1 64828U 25151N   26004.75503021 -.00022703  00000+0 -29594-2 0  9993
2 64828  51.9008 210.8105 0002974  97.8142 262.3158 14.79922760 26016
KUIPER-00083            
1 64829U 25151P   26005.16670139 -.00033630  00000+0 -43799-2 0  9999
2 64829  51.8977 216.4855 0005685  57.5525  19.0516 14.80151364  5002
KUIPER-00084            
1 64830U 25151Q   26005.00653163  .00011457  00000+0  15284-2 0  9991
2 64830  51.8988 227.1788 0008846  15.0019 345.1204 14.79939870 25800
KUIPER-00085            
1 64831U 25151R   26004.99157448  .00003536  00000+0  49214-3 0  9994
2 64831  51.9011 209.7824 0008027  55.7203 304.4519 14.79979021 26049
KUIPER-00086            
1 64832U 25151S   26004.98077718  .00003884  00000+0  53826-3 0  9995
2 64832  51.8993 219.8134 0011165  33.8159 326.3513 14.79918755 25906
KUIPER-00087            
1 64833U 25151T   26004.72961131  .00011436  00000+0  15265-2 0  9995
2 64833  51.8982 203.4148 0000646  89.5991 270.5045 14.79935983 26108
